[
  {
    "OBJECT_NAME": "OSCAR 7 (AO-7)",
    "OBJECT_ID": "1974-089B",
    "EPOCH": "2025-05-17T18:26:37.686336",
    "MEAN_MOTION": 12.53689093,
    "ECCENTRICITY": 0.0012325,
    "INCLINATION": 101.9936,
    "RA_OF_ASC_NODE": 141.7892,
    "ARG_OF_PERICENTER": 163.9228,
    "MEAN_ANOMALY": 9.272,
    "EPHEMERIS_TYPE": 0,
    "CLASSIFICATION_TYPE": "U",
    "NORAD_CAT_ID": 7530,
    "ELEMENT_SET_NO": 999,
    "REV_AT_EPOCH": 31120,
    "BSTAR": 3.1327e-05,
    "MEAN_MOTION_DOT": -4.1e-07,
    "MEAN_MOTION_DDOT": 0
  },
  {
    "OBJECT_NAME": "PHASE 3B (AO-10)",
    "OBJECT_ID": "1983-058B",
    "EPOCH": "2025-05-17T13:08:44.422368",
    "MEAN_MOTION": 2.05870675,
    "ECCENTRICITY": 0.6057831,
    "INCLINATION": 26.7913,
    "RA_OF_ASC_NODE": 286.1852,
    "ARG_OF_PERICENTER": 5.9948,
    "MEAN_ANOMALY": 358.6915,
    "EPHEMERIS_TYPE": 0,
    "CLASSIFICATION_TYPE": "U",
    "NORAD_CAT_ID": 14129,
    "ELEMENT_SET_NO": 999,
    "REV_AT_EPOCH": 28734,
    "BSTAR": 0,
    "MEAN_MOTION_DOT": -1.03e-06,
    "MEAN_MOTION_DDOT": 0
  },
  {
    "OBJECT_NAME": "UOSAT 2 (UO-11)",
    "OBJECT_ID": "1984-021B",
    "EPOCH": "2025-05-17T11:45:00.742752",
    "MEAN_MOTION": 14.89320679,
    "ECCENTRICITY": 0.0009246,
    "INCLINATION": 97.7529,
    "RA_OF_ASC_NODE": 104.3186,
    "ARG_OF_PERICENTER": 59.0928,
    "MEAN_ANOMALY": 301.1198,
    "EPHEMERIS_TYPE": 0,
    "CLASSIFICATION_TYPE": "U",
    "NORAD_CAT_ID": 14781,
    "ELEMENT_SET_NO": 999,
    "REV_AT_EPOCH": 19820,
    "BSTAR": 0.00019233,
    "MEAN_MOTION_DOT": 1.77e-05,
    "MEAN_MOTION_DDOT": 0
  },
  {
    "OBJECT_NAME": "LUSAT (LO-19)",
    "OBJECT_ID": "1990-005G",
    "EPOCH": "2025-05-17T11:59:42.596448",
    "MEAN_MOTION": 14.33945961,
    "ECCENTRICITY": 0.0010503,
    "INCLINATION": 98.8987,
    "RA_OF_ASC_NODE": 143.0428,
    "ARG_OF_PERICENTER": 288.0044,
    "MEAN_ANOMALY": 71.9995,
    "EPHEMERIS_TYPE": 0,
    "CLASSIFICATION_TYPE": "U",
    "NORAD_CAT_ID": 20442,
    "ELEMENT_SET_NO": 999,
    "REV_AT_EPOCH": 84568,
    "BSTAR": 8.4266e-05,
    "MEAN_MOTION_DOT": 1.88e-06,
    "MEAN_MOTION_DDOT": 0
  },
  {
    "OBJECT_NAME": "EYESAT A (AO-27)",
    "OBJECT_ID": "1993-061C",
    "EPOCH": "2025-05-17T13:26:35.633760",
    "MEAN_MOTION": 14.30791723,
    "ECCENTRICITY": 0.0008553,
    "INCLINATION": 98.7379,
    "RA_OF_ASC_NODE": 198.9991,
    "ARG_OF_PERICENTER": 172.6981,
    "MEAN_ANOMALY": 187.4328,
    "EPHEMERIS_TYPE": 0,
    "CLASSIFICATION_TYPE": "U",
    "NORAD_CAT_ID": 22825,
    "ELEMENT_SET_NO": 999,
    "REV_AT_EPOCH": 65042,
    "BSTAR": 8.1173e-05,
    "MEAN_MOTION_DOT": 1.68e-06,
    "MEAN_MOTION_DDOT": 0
  },
  {
    "OBJECT_NAME": "ITAMSAT (IO-26)",
    "OBJECT_ID": "1993-061D",
    "EPOCH": "2025-05-17T14:03:14.728896",
    "MEAN_MOTION": 14.31204066,
    "ECCENTRICITY": 0.0009374,
    "INCLINATION": 98.7325,
    "RA_OF_ASC_NODE": 198.9062,
    "ARG_OF_PERICENTER": 158.0334,
    "MEAN_ANOMALY": 202.1252,
    "EPHEMERIS_TYPE": 0,
    "CLASSIFICATION_TYPE": "U",
    "NORAD_CAT_ID": 22826,
    "ELEMENT_SET_NO": 999,
    "REV_AT_EPOCH": 65072,
    "BSTAR": 8.7098e-05,
    "MEAN_MOTION_DOT": 1.85e-06,
    "MEAN_MOTION_DDOT": 0
  },
  {
    "OBJECT_NAME": "RADIO ROSTO (RS-15)",
    "OBJECT_ID": "1994-085A",
    "EPOCH": "2025-05-17T11:21:49.845312",
    "MEAN_MOTION": 11.2758109,
    "ECCENTRICITY": 0.0145575,
    "INCLINATION": 64.8158,
    "RA_OF_ASC_NODE": 223.1715,
    "ARG_OF_PERICENTER": 78.8896,
    "MEAN_ANOMALY": 282.8358,
    "EPHEMERIS_TYPE": 0,
    "CLASSIFICATION_TYPE": "U",
    "NORAD_CAT_ID": 23439,
    "ELEMENT_SET_NO": 999,
    "REV_AT_EPOCH": 25128,
    "BSTAR": -0.00042823,
    "MEAN_MOTION_DOT": -5.7e-07,
    "MEAN_MOTION_DDOT": 0
  },
  {
    "OBJECT_NAME": "JAS-2 (FO-29)",
    "OBJECT_ID": "1996-046B",
    "EPOCH": "2025-05-17T07:34:08.215968",
    "MEAN_MOTION": 13.53247573,
    "ECCENTRICITY": 0.0350732,
    "INCLINATION": 98.5783,
    "RA_OF_ASC_NODE": 34.2665,
    "ARG_OF_PERICENTER": 43.005,
    "MEAN_ANOMALY": 319.7942,
    "EPHEMERIS_TYPE": 0,
    "CLASSIFICATION_TYPE": "U",
    "NORAD_CAT_ID": 24278,
    "ELEMENT_SET_NO": 999,
    "REV_AT_EPOCH": 41962,
    "BSTAR": 3.9957e-05,
    "MEAN_MOTION_DOT": 5e-08,
    "MEAN_MOTION_DDOT": 0
  },
  {
    "OBJECT_NAME": "TECHSAT 1B (GO-32)",
    "OBJECT_ID": "1998-043D",
    "EPOCH": "2025-05-17T12:14:04.423488",
    "MEAN_MOTION": 14.24309392,
    "ECCENTRICITY": 2.66e-05,
    "INCLINATION": 98.9693,
    "RA_OF_ASC_NODE": 116.1491,
    "ARG_OF_PERICENTER": 312.1164,
    "MEAN_ANOMALY": 47.9991,
    "EPHEMERIS_TYPE": 0,
    "CLASSIFICATION_TYPE": "U",
    "NORAD_CAT_ID": 25397,
    "ELEMENT_SET_NO": 999,
    "REV_AT_EPOCH": 39500,
    "BSTAR": 7.2885e-05,
    "MEAN_MOTION_DOT": 1.22e-06,
    "MEAN_MOTION_DDOT": 0
  },
  {
    "OBJECT_NAME": "ISS (ZARYA)",
    "OBJECT_ID": "1998-067A",
    "EPOCH": "2025-05-17T21:28:14.035296",
    "MEAN_MOTION": 15.4958327,
    "ECCENTRICITY": 0.000228,
    "INCLINATION": 51.6353,
    "RA_OF_ASC_NODE": 97.1434,
    "ARG_OF_PERICENTER": 120.7001,
    "MEAN_ANOMALY": 239.4212,
    "EPHEMERIS_TYPE": 0,
    "CLASSIFICATION_TYPE": "U",
    "NORAD_CAT_ID": 25544,
    "ELEMENT_SET_NO": 999,
    "REV_AT_EPOCH": 51046,
    "BSTAR": 0.00018692,
    "MEAN_MOTION_DOT": 0.00010072,
    "MEAN_MOTION_DDOT": 0
  },
  {
    "OBJECT_NAME": "PCSAT (NO-44)",
    "OBJECT_ID": "2001-043C",
    "EPOCH": "2025-05-17T10:52:58.202688",
    "MEAN_MOTION": 14.31723402,
    "ECCENTRICITY": 0.0005861,
    "INCLINATION": 67.0499,
    "RA_OF_ASC_NODE": 187.6337,
    "ARG_OF_PERICENTER": 274.0812,
    "MEAN_ANOMALY": 85.962,
    "EPHEMERIS_TYPE": 0,
    "CLASSIFICATION_TYPE": "U",
    "NORAD_CAT_ID": 26931,
    "ELEMENT_SET_NO": 999,
    "REV_AT_EPOCH": 23379,
    "BSTAR": 9.2396e-05,
    "MEAN_MOTION_DOT": 1.64e-06,
    "MEAN_MOTION_DDOT": 0
  },
  {
    "OBJECT_NAME": "SAUDISAT 1C (SO-50)",
    "OBJECT_ID": "2002-058C",
    "EPOCH": "2025-05-17T16:05:53.375424",
    "MEAN_MOTION": 14.81567879,
    "ECCENTRICITY": 0.0053608,
    "INCLINATION": 64.553,
    "RA_OF_ASC_NODE": 271.2461,
    "ARG_OF_PERICENTER": 339.2921,
    "MEAN_ANOMALY": 20.6011,
    "EPHEMERIS_TYPE": 0,
    "CLASSIFICATION_TYPE": "U",
    "NORAD_CAT_ID": 27607,
    "ELEMENT_SET_NO": 999,
    "REV_AT_EPOCH": 20604,
    "BSTAR": 0.00021065,
    "MEAN_MOTION_DOT": 1.55e-05,
    "MEAN_MOTION_DDOT": 0
  },
  {
    "OBJECT_NAME": "CUTE-1 (CO-55)",
    "OBJECT_ID": "2003-031E",
    "EPOCH": "2025-05-17T11:48:53.222688",
    "MEAN_MOTION": 14.23978815,
    "ECCENTRICITY": 0.0008408,
    "INCLINATION": 98.6763,
    "RA_OF_ASC_NODE": 146.0636,
    "ARG_OF_PERICENTER": 252.2281,
    "MEAN_ANOMALY": 107.798,
    "EPHEMERIS_TYPE": 0,
    "CLASSIFICATION_TYPE": "U",
    "NORAD_CAT_ID": 27844,
    "ELEMENT_SET_NO": 999,
    "REV_AT_EPOCH": 13535,
    "BSTAR": 0.00020229,
    "MEAN_MOTION_DOT": 4.2e-06,
    "MEAN_MOTION_DDOT": 0
  },
  {
    "OBJECT_NAME": "CUBESAT XI-IV (CO-57)",
    "OBJECT_ID": "2003-031J",
    "EPOCH": "2025-05-17T12:00:19.459872",
    "MEAN_MOTION": 14.23315817,
    "ECCENTRICITY": 0.000824,
    "INCLINATION": 98.6792,
    "RA_OF_ASC_NODE": 146.0944,
    "ARG_OF_PERICENTER": 272.1467,
    "MEAN_ANOMALY": 87.8767,
    "EPHEMERIS_TYPE": 0,
    "CLASSIFICATION_TYPE": "U",
    "NORAD_CAT_ID": 27848,
    "ELEMENT_SET_NO": 999,
    "REV_AT_EPOCH": 13508,
    "BSTAR": 0.00017495,
    "MEAN_MOTION_DOT": 3.53e-06,
    "MEAN_MOTION_DDOT": 0
  }
]