OSCAR 7 (AO-7)          
1 07530U 74089B   25137.76849174 -.00000041  00000+0  31327-4 0  9992
2 07530 101.9936 141.7892 0012325 163.9228   9.2720 12.53689093311205
PHASE 3B (AO-10)        
1 14129U 83058B   25137.54773637 -.00000103  00000+0  00000+0 0  9994
2 14129  26.7913 286.1852 6057831   5.9948 358.6915  2.05870675287345
UOSAT 2 (UO-11)         
1 14781U 84021B   25137.48959193  .00001770  00000+0  19233-3 0  9997
2 14781  97.7529 104.3186 0009246  59.0928 301.1198 14.89320679198201
LUSAT (LO-19)           
1 20442U 90005G   25137.49979857  .00000188  00000+0  84266-4 0  9998
2 20442  98.8987 143.0428 0010503 288.0044  71.9995 14.33945961845686
EYESAT A (AO-27)        
1 22825U 93061C   25137.56013465  .00000168  00000+0  81173-4 0  9994
2 22825  98.7379 198.9991 0008553 172.6981 187.4328 14.30791723650422
ITAMSAT (IO-26)         
1 22826U 93061D   25137.58558714  .00000185  00000+0  87098-4 0  9999
2 22826  98.7325 198.9062 0009374 158.0334 202.1252 14.31204066650729
RADIO ROSTO (RS-15)     
1 23439U 94085A   25137.47349358 -.00000057  00000+0 -42823-3 0  9993
2 23439  64.8158 223.1715 0145575  78.8896 282.8358 11.27581090251287
JAS-2 (FO-29)           
1 24278U 96046B   25137.31537287  .00000005  00000+0  39957-4 0  9993
2 24278  98.5783  34.2665 0350732  43.0050 319.7942 13.53247573419620
TECHSAT 1B (GO-32)      
1 25397U 98043D   25137.50977342  .00000122  00000+0  72885-4 0  9993
2 25397  98.9693 116.1491 0000266 312.1164  47.9991 14.24309392395000
ISS (ZARYA)             
1 25544U 98067A   25137.89460689  .00010072  00000+0  18692-3 0  9996
2 25544  51.6353  97.1434 0002280 120.7001 239.4212 15.49583270510469
PCSAT (NO-44)           
1 26931U 01043C   25137.45345142  .00000164  00000+0  92396-4 0  9998
2 26931  67.0499 187.6337 0005861 274.0812  85.9620 14.31723402233798
SAUDISAT 1C (SO-50)     
1 27607U 02058C   25137.67075666  .00001550  00000+0  21065-3 0  9995
2 27607  64.5530 271.2461 0053608 339.2921  20.6011 14.81567879206049
CUTE-1 (CO-55)          
1 27844U 03031E   25137.49228267  .00000420  00000+0  20229-3 0  9993
2 27844  98.6763 146.0636 0008408 252.2281 107.7980 14.23978815135351
CUBESAT XI-IV (CO-57)   
1 27848U 03031J   25137.50022523  .00000353  00000+0  17495-3 0  9992
2 27848  98.6792 146.0944 0008240 272.1467  87.8767 14.23315817135088
